[{"OBJECT_NAME":"STARLINK-3391","OBJECT_ID":"2022-005P","EPOCH":"2026-03-09T22:04:33.932352","MEAN_MOTION":15.08844118,"ECCENTRICITY":0.00014312,"INCLINATION":53.2168,"RA_OF_ASC_NODE":287.9774,"ARG_OF_PERICENTER":91.4736,"MEAN_ANOMALY":268.642,"EPHEMERIS_TYPE":0,"CLASSIFICATION_TYPE":"U","NORAD_CAT_ID":51117,"ELEMENT_SET_NO":999,"REV_AT_EPOCH":22891,"BSTAR":-3.1112352e-5,"MEAN_MOTION_DOT":-7.83e-6,"MEAN_MOTION_DDOT":0},{"OBJECT_NAME":"OBJECT C","OBJECT_ID":"2025-292C","EPOCH":"2026-03-09T21:40:07.439232","MEAN_MOTION":15.0561637,"ECCENTRICITY":0.00142936,"INCLINATION":97.6364,"RA_OF_ASC_NODE":145.6037,"ARG_OF_PERICENTER":339.8589,"MEAN_ANOMALY":20.2072,"EPHEMERIS_TYPE":0,"CLASSIFICATION_TYPE":"U","NORAD_CAT_ID":66995,"ELEMENT_SET_NO":999,"REV_AT_EPOCH":1350,"BSTAR":0.00047642755,"MEAN_MOTION_DOT":6.828e-5,"MEAN_MOTION_DDOT":0}]
